#dP2020 10 26  0  0  0.00000000      96 __u+U ITR00 FIT  IAC
## 2129  86400.00000000   900.00000000 59148 0.0000000000000
+  121   C01C02C03C04C05C06C07C08C09C10C11C12C13C14C16C19C20
+        C21C22C23C24C25C26C27C28C29C30C32C33C34C35C36C37C39
+        C40C43C44C45C46C60E01E02E03E04E05E07E08E09E11E12E13
+        E14E15E18E19E21E24E25E26E27E30E31E33E36G01G02G03G04
+        G05G06G07G08G09G10G11G12G13G15G16G17G18G19G20G21G22
+        G23G24G25G26G27G28G29G30G31G32J01J02J03J07R01R02R03
+        R04R05R07R08R09R11R12R13R14R15R16R17R18R19R20R21R22
+        R23R24  0  0  0  0  0  0  0  0  0  0  0  0  0  0  0
++        13 13 13 13 13  8  8  8  8  8  8  8  8  8  8  7  8
++         8  8  7  8  8  8  7  7  7  7  8  8  8  8  8  8 10
++        10 10 10  9  9 13  4  5  5  4  5  5  4  5  4  4  4
++         5  4  5  4  5  5  4  4  5  4  4  4  5  4  4  3  3
++         3  3  4  3  3  3  4  4  4  4  3  4  3  4  4  4  3
++         3  4  3  3  4  4  3  4  3  3  8  8  8 13  6  5  5
++         6  6  5  6  5  5  6  6  6  6  6  5  5  6  6  5  6
++         6  6  0  0  0  0  0  0  0  0  0  0  0  0  0  0  0
%c M  cc GPS ccc cccc cccc cccc cccc ccccc ccccc ccccc ccccc
%c cc cc ccc ccc cccc cccc cccc cccc ccccc ccccc ccccc ccccc
%f  0.0000000  0.000000000  0.00000000000  0.000000000000000
%f  0.0000000  0.000000000  0.00000000000  0.000000000000000
%i    0    0    0    0      0      0      0      0         0
%i    0    0    0    0      0      0      0      0         0
/* INFORMATION & ANALYSIS CENTER (IAC)            RAPID DATA
/* S/V CLOCKS ARE ALIGNED TO GNSS TIME                      
/* G:C1WC2W R:C1PC2P E:C1XC5X C:C2IC6I J:C1CC2S             
/* PCV:IGS14_2118 OL/AL:FES2004  NONE     YN ORB:CoN CLK:CoN
*  2020 10 26  9 45  0.00000000
PC01 -34355.947767  24466.980352    217.029631   -626.510389
PC02   4463.691226  41919.955687     -7.360017    784.744044
PC03 -14766.701095  39510.610517   -892.889224    807.056988
PC04 -39663.014523  14349.632095   -465.339520   -253.662768
PC05  21921.961583  36007.635822    223.819814   -179.161692
PC06 -20216.529441  21676.272306  30232.799490     70.403622
PC07 -20066.028599  37324.536280   2660.220048   -133.671399
PC08  -5036.928153  27446.129186 -31383.720406   -640.038194
PC09  -2821.689077  24485.008697  34455.110741    897.011148
PC10  -9202.904560  39928.521081 -10637.673673   -155.679593
PC11 -26207.136720    865.839219  -9571.488780   -709.782518
PC12 -24611.320664 -10394.046752   8164.424377    575.775527
PC13   5879.354980  35451.335844 -21727.075260    713.850883
PC14 -21785.528912  10651.073203 -13838.751068    414.577148
PC16 -17250.040026  22099.585300  31511.222061   -600.510185
PC19  20473.314469 -18130.244063   5539.649924    595.443659
PC20  19903.180235  -2625.256533  19378.255247   -870.618100
PC21  -7422.112486 -15111.634370 -22245.250847   -705.915583
PC22   9173.543202 -23490.586903 -11929.158455   -779.601227
PC23    328.540773  25593.416613  11124.861055   -906.947436
PC24 -17783.746119  -8864.278716  19605.120483   -720.517089
PC25 -11826.676108  12758.078428  21815.078884   -804.547415
PC26 -13657.520894 -23439.344339   6620.112807    881.037700
PC27  17584.977936  14811.874619 -15838.428004    422.092867
PC28  -2620.506686  15639.948206 -22957.695008   -153.655717
PC29  20887.112496  -8142.933770  16611.268573    302.557261
PC30  27543.638592   4530.704935    154.011568    394.985183
PC32   7508.838447  15107.402758  22234.631175   -897.499030
PC33 -20415.375819  18194.222434  -5603.335119   -820.160370
PC34 -27567.573563  -4213.895889   -739.627952   -823.440275
PC35   2386.993224 -15737.784846  22919.926651   -589.820710
PC36  12239.651824 -12223.609581 -21867.340448   -861.676903
PC37  12719.036707  24109.338811  -5904.625978   -888.867599
PC39 -11971.575466  23761.896353  32683.690559     24.347797
PC40 -16301.261715  37884.720954  -9108.531365     94.656455
PC43 -21227.587143   7883.643330 -16301.440609 999999.999999
PC44 -17851.537209 -14366.408482  15906.004664 999999.999999
PC45   -514.837587 -25603.612075 -11103.063803    265.932720
PC46  17673.950538   8042.889532 -20014.444970    574.726618
PC60   7264.293182  41489.660451  -1892.795515     -0.299081
PE01  16394.958166 -10112.518026 -22466.081242   -969.370615
PE02 -16388.266422  10207.920368  22439.877075    171.735174
PE03 -27721.132085  10163.199384  -2220.960259   -357.960730
PE04  16813.685406 -18980.306033 -15273.253772   -634.871266
PE05 -22502.301227  -4739.089383 -18644.466415   -334.709865
PE07   4190.489975  16747.455052  24043.906864   -453.608132
PE08 -16510.522310  19041.905247  15529.202020   6101.012850
PE09  -4399.662717 -16529.189374 -24160.358766   5886.259572
PE11 -13584.711791 -21862.333168  14608.738166   6516.661744
PE12   6343.210204 -15309.482290  24527.584593   5537.799744
PE13  13422.800785  21772.727198 -14887.156770    405.163486
PE14  18521.254245  14301.102246 -19732.825698  -1203.467114
PE15  -6099.097128  15353.236058 -24553.164398    846.708096
PE18 -25821.473302  -3078.158715   6589.595787  -1314.606280
PE19  27964.606164  -8667.560931   4368.233435    112.528408
PE21  14189.239617  11864.996356 -23101.674831   -628.607856
PE24  -3234.027600 -27739.934594   9839.613106   -549.429071
PE25 -14143.162352 -12036.337993  23063.827100   -518.984448
PE26  25095.949052  15140.635357   4085.434468   2569.323839
PE27   3663.863035  27509.581825 -10272.224588    105.881725
PE30  -9433.708526  26552.030157   9043.756666   3475.101442
PE31   8929.792830 -26912.435107  -8482.147250   -475.174116
PE33  22015.842964     76.262124  19788.496911   -462.977247
PE36 -25037.676524 -15401.096896  -3507.239234    489.439243
PG01  20355.890094  12003.126288  12211.571323    813.034710
PG02 -13504.757095 -21779.633818   7652.259958   -534.491549
PG03  15329.135098   1423.264356  21551.565442   -336.517837
PG04  25570.811803   1490.733852   7110.553137   -149.106370
PG05  -5029.669963 -20704.010551 -15897.160586    -24.326707
PG06   -304.552749 -19379.114419  18198.661712   -335.450065
PG07  15788.432778  -3972.160761 -20743.653209   -401.297751
PG08  20347.327594   7126.093083 -15679.279324    -52.801309
PG09  24947.365956  -7976.428571  -4527.099711   -305.268902
PG10 -11631.042161  23328.595046  -4215.170373   -489.119747
PG11  23497.700630  11824.075906  -2228.912667   -126.377806
PG12 -13999.780188  -4839.717811  21806.109456     48.967417
PG13 -11888.131359 -13215.555494 -19902.564166     58.484495
PG15 -21635.669863  -5473.208137 -15019.481631   -194.363709
PG16   3405.146276  19935.325198 -17188.779994   -227.628584
PG17  12038.392566 -14276.100514  19306.426596    345.143497
PG18 -14495.668066   5688.701118 -21533.146076    312.656081
PG19   5458.138695 -14570.688132  21227.199171    -86.755382
PG20 -14942.526859  15693.585030 -15260.211207    526.265358
PG21  18739.653830  19096.580505    462.157012     61.715185
PG22  13298.138318  10174.380643  20839.768300   -738.523898
PG23 -15617.872891  16769.292260 -13438.342813     91.640482
PG24 -21399.778140 -13500.593009   8474.035754    -20.289664
PG25 -16778.035348   8895.604703  18218.181829     11.473663
PG26  -3835.581382  25489.414403  -5881.898720    301.488100
PG27   9260.460435  13051.662223 -21404.279818   -427.038570
PG28  12510.930336 -23416.042936  -1722.077445    663.210841
PG29 -26159.565848   4158.502839  -2330.683500   -223.428703
PG30   8662.980038 -13793.730875 -20895.358508   -324.313067
PG31   1433.816129  20534.843122  16462.324265    -77.387172
PG32 -11583.855075  15255.222083  18417.861881    361.457099
PJ01 -29258.989076  30416.389589   4243.722507   -338.654544
PJ02 -26580.381399  26424.136719  24088.446306     -5.743265
PJ03 -31771.785069  16174.590002 -17885.358352     -2.367848
PJ07 -25377.187837  33672.147983     55.542131      0.034007
PR01   -935.249057  14116.483528  21221.164501     69.641137
PR02  16515.604094  -1349.001816  19447.931644    451.627445
PR03  20972.200106 -13635.304210   5166.657128     24.456770
PR04  13558.984238 -18010.598718 -11924.596146     59.321255
PR05  -1379.845389 -12285.850534 -22313.094514     59.944928
PR07 -20856.773108  13935.362679  -4472.055167    -40.986033
PR08 -13463.767429  18061.689805  11990.946087    -55.349920
PR09 -11717.443980 -10246.298819  20207.019461      4.338942
PR11  -1290.192515  23366.921450  10226.674476    -42.440551
PR12   6819.535122  23696.114826  -6457.447361    174.922459
PR13  11505.831989  10616.543474 -20148.728480    -45.739549
PR14   9295.847934  -8987.054518 -21968.000864     57.028078
PR15   1775.682687 -22939.218132 -10989.911557    106.991929
PR16  -7696.127349 -23299.616146   7186.278831     -7.598772
PR17  19560.198282   -267.905408  16351.840841    369.009397
PR18   4920.436866  -9286.927633  23258.819455     54.025247
PR19 -11552.870780 -13717.044888  18147.425042   -117.022527
PR20 -23342.827100 -10234.626099    421.831006   -425.046798
PR21 -18928.404962    755.046871 -17100.514665   -161.683600
PR22  -3582.973593   9777.865648 -23298.423436    -79.081453
PR23  17858.033710  13254.630686 -12491.081494    340.807112
PR24  23590.695583   9664.457058    359.196196     18.253237
EOF
